{"norad_cat_id":"25254","object_name":"SL-16 DEB","object_id":"1993-059H","object_type":"DEBRIS","country_code":"CIS","epoch":"2026-05-30T04:54:24.548256","creation_date":"2026-05-30T07:36:53","launch_date":"1993-09-16","decay_date":null,"inclination":70.9877,"eccentricity":0.0015989,"mean_motion":14.23700523,"period":101.145,"semimajor_axis":7191.002,"apoapsis":824.365,"periapsis":801.369,"tle_line0":"0 SL-16 DEB","tle_line1":"1 25254U 93059H   26150.20445079  .00000336  00000-0  16822-3 0  9993","tle_line2":"2 25254  70.9877  66.5222 0015989 349.8045 160.3208 14.23700523495023","fetched_at":"2026-05-30T16:18:06.042337+00:00"}
{"norad_cat_id":"53453","object_name":"OBJECT K","object_id":"2022-098K","object_type":"UNKNOWN","country_code":"PRC","epoch":"2026-05-30T04:54:21.277152","creation_date":"2026-05-30T07:36:53","launch_date":"2022-08-10","decay_date":null,"inclination":97.5561,"eccentricity":5.12e-05,"mean_motion":15.69192554,"period":91.767,"semimajor_axis":6739.345,"apoapsis":361.555,"periapsis":360.865,"tle_line0":"0 OBJECT K","tle_line1":"1 53453U 22098K   26150.20441293  .00100744  00000-0  86009-3 0  9992","tle_line2":"2 53453  97.5561 280.4552 0000512 212.7726 147.3503 15.69192554211932","fetched_at":"2026-05-30T16:18:06.042337+00:00"}
{"norad_cat_id":"22579","object_name":"SL-16 DEB","object_id":"1993-016G","object_type":"DEBRIS","country_code":"CIS","epoch":"2026-05-30T04:54:21.252960","creation_date":"2026-05-30T07:36:53","launch_date":"1993-03-26","decay_date":null,"inclination":71.0294,"eccentricity":0.0100504,"mean_motion":14.46972003,"period":99.518,"semimajor_axis":7113.693,"apoapsis":807.053,"periapsis":664.062,"tle_line0":"0 SL-16 DEB","tle_line1":"1 22579U 93016G   26150.20441265  .00000626  00000-0  17602-3 0  9995","tle_line2":"2 22579  71.0294 337.4452 0100504  98.8400  18.3032 14.46972003746805","fetched_at":"2026-05-30T16:18:06.042337+00:00"}
{"norad_cat_id":"58304","object_name":"FLOCK 4Q 29","object_id":"2023-174BA","object_type":"PAYLOAD","country_code":"US","epoch":"2026-05-30T04:54:19.217376","creation_date":"2026-05-30T07:46:57","launch_date":"2023-11-11","decay_date":null,"inclination":97.3938,"eccentricity":0.0005939,"mean_motion":15.54408347,"period":92.64,"semimajor_axis":6782.01,"apoapsis":407.903,"periapsis":399.847,"tle_line0":"0 FLOCK 4Q 29","tle_line1":"1 58304U 23174BA  26150.20438909  .00041075  00000-0  62487-3 0  9993","tle_line2":"2 58304  97.3938 241.3343 0005939 188.2816 171.8341 15.54408347142969","fetched_at":"2026-05-30T16:18:06.042337+00:00"}
{"norad_cat_id":"64253","object_name":"STARLINK-33893","object_id":"2025-119W","object_type":"PAYLOAD","country_code":"US","epoch":"2026-05-30T04:54:19.048032","creation_date":"2026-05-30T07:46:57","launch_date":"2025-06-03","decay_date":null,"inclination":43.0005,"eccentricity":0.0001299,"mean_motion":15.27594996,"period":94.266,"semimajor_axis":6861.141,"apoapsis":483.897,"periapsis":482.115,"tle_line0":"0 STARLINK-33893","tle_line1":"1 64253U 25119W   26150.20438713  .00035124  00000-0  12792-2 0  9998","tle_line2":"2 64253  43.0005 206.8931 0001299 241.6376 118.4344 15.27594996 56635","fetched_at":"2026-05-30T16:18:06.042337+00:00"}
{"norad_cat_id":"6218","object_name":"ATLAS F BURNER 2 R/B","object_id":"1972-076C","object_type":"ROCKET BODY","country_code":"US","epoch":"2026-05-30T04:54:13.533120","creation_date":"2026-05-30T07:26:56","launch_date":"1972-10-02","decay_date":null,"inclination":98.5165,"eccentricity":0.0011042,"mean_motion":14.56737926,"period":98.851,"semimajor_axis":7081.864,"apoapsis":711.548,"periapsis":695.909,"tle_line0":"0 ATLAS F BURNER 2 R/B","tle_line1":"1  6218U 72076C   26150.20432330  .00000230  00000-0  62231-4 0  9993","tle_line2":"2  6218  98.5165 235.7362 0011042 344.1916  15.8935 14.56737926843834","fetched_at":"2026-05-30T16:18:06.042337+00:00"}
{"norad_cat_id":"60414","object_name":"STARLINK-32234","object_id":"2024-141S","object_type":"PAYLOAD","country_code":"US","epoch":"2026-05-30T04:54:07.085088","creation_date":"2026-05-30T07:36:53","launch_date":"2024-08-10","decay_date":null,"inclination":53.1576,"eccentricity":0.0001001,"mean_motion":15.3169409,"period":94.014,"semimajor_axis":6848.895,"apoapsis":471.445,"periapsis":470.074,"tle_line0":"0 STARLINK-32234","tle_line1":"1 60414U 24141S   26150.20424867  .00009360  00000-0  31306-3 0  9998","tle_line2":"2 60414  53.1576 223.7633 0001001  59.2834 300.8265 15.31694090102064","fetched_at":"2026-05-30T16:18:06.042337+00:00"}
{"norad_cat_id":"13768","object_name":"COSMOS 1436","object_id":"1983-002H","object_type":"PAYLOAD","country_code":"CIS","epoch":"2026-05-30T04:54:06.361056","creation_date":"2026-05-30T07:26:56","launch_date":"1983-01-19","decay_date":null,"inclination":74.0259,"eccentricity":0.0043212,"mean_motion":12.57741648,"period":114.491,"semimajor_axis":7810.417,"apoapsis":1466.032,"periapsis":1398.531,"tle_line0":"0 COSMOS 1436","tle_line1":"1 13768U 83002H   26150.20424029 -.00000009  00000-0  42075-4 0  9997","tle_line2":"2 13768  74.0259  48.5564 0043212  77.9452 355.7113 12.57741648990752","fetched_at":"2026-05-30T16:18:06.042337+00:00"}
{"norad_cat_id":"41429","object_name":"NOAA 16 DEB","object_id":"2000-055LJ","object_type":"DEBRIS","country_code":"US","epoch":"2026-05-30T04:54:05.427936","creation_date":"2026-05-30T07:26:56","launch_date":"2000-09-21","decay_date":null,"inclination":98.7078,"eccentricity":0.00162,"mean_motion":14.29987088,"period":100.7,"semimajor_axis":7169.911,"apoapsis":803.391,"periapsis":780.161,"tle_line0":"0 NOAA 16 DEB","tle_line1":"1 41429U 00055LJ  26150.20422949  .00004879  00000-0  19051-2 0  9992","tle_line2":"2 41429  98.7078 236.6442 0016200  43.4807 316.7649 14.29987088530520","fetched_at":"2026-05-30T16:18:06.042337+00:00"}
{"norad_cat_id":"62666","object_name":"FLOCK 4G 1","object_id":"2025-009BK","object_type":"PAYLOAD","country_code":"US","epoch":"2026-05-30T04:54:04.660704","creation_date":"2026-05-30T07:46:57","launch_date":"2025-01-14","decay_date":null,"inclination":97.403,"eccentricity":0.0004773,"mean_motion":15.29241469,"period":94.164,"semimajor_axis":6856.216,"apoapsis":481.353,"periapsis":474.808,"tle_line0":"0 FLOCK 4G 1","tle_line1":"1 62666U 25009BK  26150.20422061  .00015313  00000-0  54172-3 0  9998","tle_line2":"2 62666  97.4030 232.2838 0004773  45.2447 314.9181 15.29241469 76166","fetched_at":"2026-05-30T16:18:06.042337+00:00"}
{"norad_cat_id":"60012","object_name":"OBJECT A","object_id":"2024-110A","object_type":"UNKNOWN","country_code":"PRC","epoch":"2026-05-30T04:53:59.520768","creation_date":"2026-05-30T07:36:53","launch_date":"2024-06-06","decay_date":null,"inclination":97.5692,"eccentricity":0.0007602,"mean_motion":15.13044934,"period":95.172,"semimajor_axis":6905.057,"apoapsis":532.172,"periapsis":521.673,"tle_line0":"0 OBJECT A","tle_line1":"1 60012U 24110A   26150.20416112  .00009913  00000-0  56386-3 0  9991","tle_line2":"2 60012  97.5692 242.0140 0007602 324.7575  35.3152 15.13044934109193","fetched_at":"2026-05-30T16:18:06.042337+00:00"}
{"norad_cat_id":"11736","object_name":"SL-8 R/B","object_id":"1980-022B","object_type":"ROCKET BODY","country_code":"CIS","epoch":"2026-05-30T04:53:56.481216","creation_date":"2026-05-30T07:26:56","launch_date":"1980-03-17","decay_date":null,"inclination":82.943,"eccentricity":0.0032112,"mean_motion":13.7680993,"period":104.59,"semimajor_axis":7353.36,"apoapsis":998.838,"periapsis":951.612,"tle_line0":"0 SL-8 R/B","tle_line1":"1 11736U 80022B   26150.20412594  .00000063  00000-0  48896-4 0  9999","tle_line2":"2 11736  82.9430 250.3343 0032112 312.7612  47.0844 13.76809930320274","fetched_at":"2026-05-30T16:18:06.042337+00:00"}
{"norad_cat_id":"38765","object_name":"RE","object_id":"2012-048H","object_type":"PAYLOAD","country_code":"US","epoch":"2026-05-30T04:53:55.243968","creation_date":"2026-05-30T07:26:56","launch_date":"2012-09-13","decay_date":null,"inclination":64.6565,"eccentricity":0.0095783,"mean_motion":15.20557622,"period":94.702,"semimajor_axis":6882.295,"apoapsis":570.08,"periapsis":438.239,"tle_line0":"0 RE","tle_line1":"1 38765U 12048H   26150.20411162  .00015970  00000-0  64880-3 0  9996","tle_line2":"2 38765  64.6565 242.1172 0095783 182.3642 177.7045 15.20557622112662","fetched_at":"2026-05-30T16:18:06.042337+00:00"}
{"norad_cat_id":"66069","object_name":"STARLINK-35279","object_id":"2025-235M","object_type":"PAYLOAD","country_code":"US","epoch":"2026-05-30T04:53:52.459296","creation_date":"2026-05-30T07:26:56","launch_date":"2025-10-19","decay_date":null,"inclination":53.1604,"eccentricity":0.0001403,"mean_motion":15.30215494,"period":94.104,"semimajor_axis":6853.306,"apoapsis":476.132,"periapsis":474.209,"tle_line0":"0 STARLINK-35279","tle_line1":"1 66069U 25235M   26150.20407939  .00025842  00000-0  88119-3 0  9993","tle_line2":"2 66069  53.1604 226.5026 0001403  79.6885 280.4274 15.30215494 35405","fetched_at":"2026-05-30T16:18:06.042337+00:00"}
{"norad_cat_id":"41408","object_name":"NOAA 16 DEB","object_id":"2000-055KM","object_type":"DEBRIS","country_code":"US","epoch":"2026-05-30T04:53:51.340416","creation_date":"2026-05-30T07:26:56","launch_date":"2000-09-21","decay_date":null,"inclination":98.7235,"eccentricity":0.0008114,"mean_motion":14.34126923,"period":100.41,"semimajor_axis":7156.106,"apoapsis":783.778,"periapsis":772.165,"tle_line0":"0 NOAA 16 DEB","tle_line1":"1 41408U 00055KM  26150.20406644  .00005826  00000-0  20955-2 0  9991","tle_line2":"2 41408  98.7235 247.8123 0008114 295.3833  64.6511 14.34126923532667","fetched_at":"2026-05-30T16:18:06.042337+00:00"}
